[{"OBJECT_NAME":"GLOBALSTAR M093","OBJECT_ID":"2013-005B","EPOCH":"2026-03-09T14:26:14.129952","MEAN_MOTION":12.62273324,"ECCENTRICITY":0.0001072,"INCLINATION":52.0103,"RA_OF_ASC_NODE":179.7905,"ARG_OF_PERICENTER":119.3938,"MEAN_ANOMALY":240.7036,"EPHEMERIS_TYPE":0,"CLASSIFICATION_TYPE":"U","NORAD_CAT_ID":39073,"ELEMENT_SET_NO":999,"REV_AT_EPOCH":60428,"BSTAR":0.00012079,"MEAN_MOTION_DOT":-8.2e-7,"MEAN_MOTION_DDOT":0},{"OBJECT_NAME":"COSMOS 1909","OBJECT_ID":"1988-002A","EPOCH":"2026-03-09T17:23:11.583168","MEAN_MOTION":12.62866933,"ECCENTRICITY":0.00015314,"INCLINATION":82.6168,"RA_OF_ASC_NODE":340.7061,"ARG_OF_PERICENTER":150.7286,"MEAN_ANOMALY":267.9201,"EPHEMERIS_TYPE":0,"CLASSIFICATION_TYPE":"U","NORAD_CAT_ID":18788,"ELEMENT_SET_NO":999,"REV_AT_EPOCH":75825,"BSTAR":0.00014247064,"MEAN_MOTION_DOT":3.6e-7,"MEAN_MOTION_DDOT":0}]
